#aV2014  6 25  0  0  0.00000000     288 DD+AD WGS84 FIT  NGA
## 1798 259200.00000000   300.00000000 56833 0.0000000000000
+   32     1  2  3  4  5  6  7  8  9 10 11 12 13 14 15 16 17
+         18 19 20 21 22 23 24 25 26 27 28 29 30 31 32  0  0
+          0  0  0  0  0  0  0  0  0  0  0  0  0  0  0  0  0
+          0  0  0  0  0  0  0  0  0  0  0  0  0  0  0  0  0
+          0  0  0  0  0  0  0  0  0  0  0  0  0  0  0  0  0
++         2  2  2  2  2  2  2  2  2  2  2  2  2  2  2  2  2
++         2  2  2  2  2  2  2  2  2  2  2  2  2  2  2  0  0
++         0  0  0  0  0  0  0  0  0  0  0  0  0  0  0  0  0
++         0  0  0  0  0  0  0  0  0  0  0  0  0  0  0  0  0
++         0  0  0  0  0  0  0  0  0  0  0  0  0  0  0  0  0
%c cc cc ccc ccc cccc cccc cccc cccc ccccc ccccc ccccc ccccc
%c cc cc ccc ccc cccc cccc cccc cccc ccccc ccccc ccccc ccccc
%f  0.0000000  0.000000000  0.00000000000  0.000000000000000
%f  0.0000000  0.000000000  0.00000000000  0.000000000000000
%i    0    0    0    0      0      0      0      0         0
%i    0    0    0    0      0      0      0      0         0
/*      NGA, ST. LOUIS,MO.                                  
/*   EPHEMERIS COMPUTED FROM  1 DAYS OF DATA                
/*   EPOCHA SMOOTHER                                       
/* CCCCCCCCCCCCCCCCCCCCCCCCCCCCCCCCCCCCCCCCCCCCCCCCCCCCCCCCC
*  2014  6 25 14 30  0.00000000
P  1 -19359.915932 -13418.358617 -12446.715613     16.176207                    
V  1  15791.371900   1399.362528 -25994.439976      0.009380                    
P  2  -4442.157851  15213.469834  21590.925190    503.134842                    
V  2 -26225.763679  -5660.142375  -1915.929550      0.021574                    
P  3   1394.406788 -22010.150430 -15254.291706    382.442866                    
V  3  12373.056670 -13987.111941  22273.683829      0.047448                    
P  4 -21374.061106   6143.565675  14373.593196      7.342772                    
V  4 -17795.135343  -6454.555825 -22953.701217      0.000183                    
P  5    662.153509  24720.493546   9427.240322   -363.072232                    
V  5  -6563.504357 -10616.477354  28358.154807      0.028927                    
P  6 -17040.396109   9207.157275  18158.683317      4.740410                    
V  6 -22189.094874  -6548.699587 -17504.217283     -0.026477                    
P  7 -25997.139939  -6289.379536   -359.070606    361.607613                    
V  7     -3.045192  -2200.553488  31794.718612      0.042455                    
P  8 -25284.714596  -3443.274736  -8268.798364     14.394558                    
V  8  -9516.836790  -4619.917638  29838.331344      0.001348                    
P  9 -23013.979278   3889.603159 -13402.751093     65.557015                    
V  9 -15302.872926  -4985.957606  25658.597574      0.679559                    
P 10 -11215.521318  12973.839919  19832.712909   -131.127999                    
V 10  -8850.320145 -24623.426523  11335.944664     -0.015083                    
P 11 -13108.548083 -14059.955850 -18895.846790   -500.182316                    
V 11  22921.632683  -4204.815200 -12914.822803     -0.031162                    
P 12  11054.478651  23177.882969   7147.812414    213.885091                    
V 12    703.223817   9227.117609 -30476.098806      0.025161                    
P 13 -17465.923111  -2457.457773  19782.940319    -14.086467                    
V 13  18451.404746 -17339.793886  13878.447989     -0.038762                    
P 14  21614.653430 -13373.291404  -7204.793082    160.339960                    
V 14  -5201.602429   8321.671510 -30268.719540     -0.035439                    
P 15   3828.750168  17575.765851 -19507.471102   -187.334140                    
V 15 -17375.010492  17802.689749  12957.574143     -0.021987                    
P 16    404.344544 -24574.405138   9527.003597   -211.168015                    
V 16   4920.662474  11412.592446  29408.538762      0.021161                    
P 17 -21116.652997  14146.918868  -7031.111886   -104.028216                    
V 17   4754.909460  -8442.138976 -30379.464944     -0.029142                    
P 18  17043.643190   6056.679502 -19090.220346    327.674172                    
V 18   6234.315798  24528.310798  12707.826110      0.023600                    
P 19    521.260303 -18292.471198 -19229.380419   -464.675428                    
V 19  19035.497169 -15085.830273  15426.204657     -0.021337                    
P 20 -14746.134073 -20246.455193   8752.401649    203.785769                    
V 20   -747.568579 -11920.266331 -28168.637350      0.040761                    
P 21  26308.828178   3207.716895  -3328.255623   -369.034057                    
V 21   4136.404399   4337.465118  30451.941434     -0.021693                    
P 22  13549.281960  -9098.786117 -20718.432934    244.995264                    
V 22   8957.987533  25462.916449  -5434.181792      0.031111                    
P 23 -10235.011385 -11639.006670  21664.458866    -31.534899                    
V 23  18982.443838 -19617.279985  -2003.471454     -0.030229                    
P 24  15665.369961  14692.389900 -15710.919584    -30.743882                    
V 24 -19853.283200  -2240.107687 -21827.703043     -0.006289                    
P 25  15895.944492  13416.014464  16516.527934     24.915876                    
V 25   4868.053873  20511.610727 -21115.556619      0.000257                    
P 26  -8672.553579  20812.074302 -14459.108286     35.180964                    
V 26 -14155.864140  10161.753797  24505.394747     -0.123910                    
P 27  10146.142229 -22037.558322 -10745.049725     -7.260913                    
V 27  11012.865330  -8410.089648  27735.408704      0.030580                    
P 28 -13839.385051   3880.254839 -21731.847288    364.921425                    
V 28  -6885.253502 -28169.249080   -753.515895      0.028328                    
P 29  17198.124431   2480.288722  20108.118342    542.222585                    
V 29 -17513.775991  18484.441119  12767.425703      0.026258                    
P 30 -24444.605873     98.251007 -10444.246738    -33.113252                    
V 30 -11906.590492  -6309.072490  27791.194225     -0.066230                    
P 31  16048.323674  -9271.615887  19291.092974    333.858293                    
V 31  23033.055952   6893.317145 -15673.647764     -0.001741                    
P 32  -4862.574341 -26383.368426  -1256.828657   -399.182031                    
V 32   3060.222255   1003.997795 -31047.754427      0.082857                    
EOF
